OBJECT_NAME,OBJECT_ID,EPOCH,MEAN_MOTION,ECCENTRICITY,INCLINATION,RA_OF_ASC_NODE,ARG_OF_PERICENTER,MEAN_ANOMALY,EPHEMERIS_TYPE,CLASSIFICATION_TYPE,NORAD_CAT_ID,ELEMENT_SET_NO,REV_AT_EPOCH,BSTAR,MEAN_MOTION_DOT,MEAN_MOTION_DDOT
IRIDIUM 138,2017-083B,2026-07-05T07:36:07.073856,14.34218644,.0002126,86.3995,314.1342,88.7161,271.4278,0,U,43071,999,44673,.39841E-4,.131E-5,0
IRIDIUM 130,2017-083D,2026-07-05T07:45:15.070176,14.34218278,.0002106,86.3988,314.6961,99.3186,260.8248,0,U,43073,999,44671,.34642E-4,.117E-5,0
IRIDIUM 151,2017-083E,2026-07-05T07:08:43.154016,14.34218065,.0002225,86.3984,314.4879,94.1441,266.0009,0,U,43074,999,44673,.18083E-4,.7E-6,0
IRIDIUM 137,2017-083G,2026-07-05T08:21:47.158272,14.34218590,.0002628,86.3985,314.5679,97.8007,262.3487,0,U,43076,999,44677,.38143E-4,.127E-5,0
IRIDIUM 141,2017-083H,2026-07-05T08:12:39.146400,14.34218078,.0002185,86.3979,314.4002,91.8922,268.2524,0,U,43077,999,44677,.18839E-4,.73E-6,0
IRIDIUM 153,2017-083J,2026-07-05T07:03:47.350656,14.34218590,.0002102,86.3966,282.9009,92.9299,267.2137,0,U,43078,999,44787,.14231E-3,.418E-5,0
IRIDIUM 131,2017-083K,2026-07-05T07:54:23.139072,14.34218186,.0002234,86.3988,314.5927,93.4034,266.7417,0,U,43079,999,44670,.22412E-4,.83E-6,0
IRIDIUM 144,2018-030A,2026-07-05T07:12:55.431648,14.34217795,.0002295,86.3964,282.8268,98.1261,262.0196,0,U,43249,999,43273,.29406E-4,.102E-5,0
IRIDIUM 149,2018-030B,2026-07-05T07:22:03.385632,14.34218366,.0002263,86.3961,282.7909,93.5049,266.6405,0,U,43250,999,43275,.31082E-4,.107E-5,0
IRIDIUM 157,2018-030C,2026-07-05T07:49:27.399648,14.34218225,.000225,86.3965,282.8366,94.8562,265.2891,0,U,43251,999,43273,.2981E-4,.103E-5,0
IRIDIUM 140,2018-030D,2026-07-05T08:16:51.334176,14.34218669,.0002188,86.3964,282.8412,95.5493,264.5952,0,U,43252,999,43279,.45806E-4,.148E-5,0
IRIDIUM 145,2018-030E,2026-07-05T07:58:34.754016,14.34216641,.000234,86.3964,282.8187,103.4191,256.7266,0,U,43253,999,43272,.4975E-4,.159E-5,0
IRIDIUM 146,2018-030F,2026-07-05T07:31:11.386272,14.34218216,.0002301,86.3964,282.8388,98.0679,262.0778,0,U,43254,999,43273,.17577E-4,.69E-6,0
IRIDIUM 148,2018-030G,2026-07-05T06:45:31.347648,14.34219257,.0002407,86.3963,282.8954,95.5242,264.6229,0,U,43255,999,43276,.81021E-4,.247E-5,0
IRIDIUM 142,2018-030H,2026-07-05T07:40:19.372224,14.34218947,.0002333,86.3962,282.7677,98.7140,261.4321,0,U,43256,999,43273,.15426E-3,.452E-5,0
IRIDIUM 150,2018-030J,2026-07-05T06:54:39.375072,14.34218496,.0002204,86.3965,282.8982,96.1504,263.9943,0,U,43257,999,43275,.43764E-4,.142E-5,0
IRIDIUM 161,2018-047C,2026-07-05T04:40:48.781920,14.43283077,.0002401,86.4473,80.9415,79.5151,280.6320,0,U,43478,999,42773,.11924E-3,.421E-5,0
IRIDIUM 152,2018-047D,2026-07-05T05:47:59.004096,14.34217773,.0002202,86.3948,80.7833,81.7603,278.3843,0,U,43479,999,42507,.11726E-3,.348E-5,0
IRIDIUM 147,2018-047E,2026-07-05T05:57:05.789088,14.34217354,.0002278,86.3949,80.7861,88.3480,271.7977,0,U,43480,999,42507,.11491E-3,.342E-5,0
IRIDIUM 110,2018-047F,2026-07-05T06:06:14.225184,14.34217759,.0002219,86.3952,80.8756,75.3892,284.7550,0,U,43481,999,42506,.15977E-5,.24E-6,0
IRIDIUM 162,2018-047G,2026-07-05T06:11:34.520352,14.43281909,.0002234,86.4471,80.8059,83.7009,276.4446,0,U,43482,999,42773,.1217E-3,.43E-5,0
IRIDIUM 160,2018-061A,2026-07-05T03:07:46.452000,14.34217737,.000225,86.3946,49.2932,85.6553,274.4900,0,U,43569,999,41594,-.33881E-5,.1E-6,0
IRIDIUM 166,2018-061B,2026-07-05T03:44:18.396672,14.34218484,.000222,86.3945,49.2328,89.0050,271.1400,0,U,43570,999,41597,.39069E-4,.129E-5,0
IRIDIUM 158,2018-061C,2026-07-05T02:58:38.255232,14.34219582,.0002111,86.3944,49.2559,85.1772,274.9665,0,U,43571,999,41593,.83503E-4,.254E-5,0
IRIDIUM 165,2018-061D,2026-07-05T03:35:10.362336,14.34218462,.0002172,86.3947,49.2922,89.7396,270.4049,0,U,43572,999,41596,.27942E-4,.98E-6,0
IRIDIUM 155,2018-061E,2026-07-05T02:40:22.057824,14.34220194,.0002046,86.3941,49.1760,86.8345,273.3085,0,U,43573,999,41592,.82428E-4,.251E-5,0
IRIDIUM 154,2018-061F,2026-07-05T03:53:26.220192,14.34219278,.0002157,86.3943,49.2893,88.6083,271.5360,0,U,43574,999,41598,.86266E-4,.261E-5,0
IRIDIUM 163,2018-061G,2026-07-05T03:26:02.321952,14.34219194,.0002204,86.3943,49.2121,84.5290,275.6157,0,U,43575,999,41595,.71647E-4,.22E-5,0
