IRIDIUM 138             
1 43071U 17083B   26186.31674855  .00000131  00000+0  39841-4 0  9999
2 43071  86.3995 314.1342 0002125  88.7161 271.4278 14.34218644446738
IRIDIUM 130             
1 43073U 17083D   26186.32309109  .00000117  00000+0  34642-4 0  9997
2 43073  86.3988 314.6961 0002105  99.3186 260.8248 14.34218278446717
IRIDIUM 151             
1 43074U 17083E   26186.29772170  .00000070  00000+0  18083-4 0  9995
2 43074  86.3984 314.4879 0002225  94.1441 266.0009 14.34218065446739
IRIDIUM 137             
1 43076U 17083G   26186.34846248  .00000127  00000+0  38143-4 0  9993
2 43076  86.3985 314.5679 0002627  97.8007 262.3487 14.34218590446771
IRIDIUM 141             
1 43077U 17083H   26186.34211975  .00000073  00000+0  18839-4 0  9997
2 43077  86.3979 314.4002 0002184  91.8922 268.2524 14.34218078446770
IRIDIUM 153             
1 43078U 17083J   26186.29429805  .00000418  00000+0  14231-3 0  9999
2 43078  86.3966 282.9009 0002102  92.9299 267.2137 14.34218590447872
IRIDIUM 131             
1 43079U 17083K   26186.32943449  .00000083  00000+0  22412-4 0  9998
2 43079  86.3988 314.5927 0002234  93.4034 266.7417 14.34218186446704
IRIDIUM 144             
1 43249U 18030A   26186.30064158  .00000102  00000+0  29406-4 0  9991
2 43249  86.3964 282.8268 0002295  98.1261 262.0196 14.34217795432739
IRIDIUM 149             
1 43250U 18030B   26186.30698364  .00000107  00000+0  31082-4 0  9993
2 43250  86.3961 282.7909 0002262  93.5049 266.6405 14.34218366432756
IRIDIUM 157             
1 43251U 18030C   26186.32601158  .00000103  00000+0  29810-4 0  9993
2 43251  86.3965 282.8366 0002249  94.8562 265.2891 14.34218225432734
IRIDIUM 140             
1 43252U 18030D   26186.34503859  .00000148  00000+0  45806-4 0  9997
2 43252  86.3964 282.8412 0002187  95.5493 264.5952 14.34218669432796
IRIDIUM 145             
1 43253U 18030E   26186.33234669  .00000159  00000+0  49750-4 0  9991
2 43253  86.3964 282.8187 0002340 103.4191 256.7266 14.34216642432724
IRIDIUM 146             
1 43254U 18030F   26186.31332623  .00000069  00000+0  17577-4 0  9991
2 43254  86.3964 282.8388 0002300  98.0679 262.0778 14.34218216432732
IRIDIUM 148             
1 43255U 18030G   26186.28161283  .00000247  00000+0  81021-4 0  9993
2 43255  86.3963 282.8954 0002406  95.5242 264.6229 14.34219257432764
IRIDIUM 142             
1 43256U 18030H   26186.31966866  .00000452  00000+0  15426-3 0  9991
2 43256  86.3962 282.7677 0002333  98.7140 261.4321 14.34218947432736
IRIDIUM 150             
1 43257U 18030J   26186.28795574  .00000142  00000+0  43764-4 0  9997
2 43257  86.3965 282.8982 0002204  96.1504 263.9943 14.34218497432752
IRIDIUM 161             
1 43478U 18047C   26186.19500906  .00000421  00000+0  11924-3 0  9995
2 43478  86.4473  80.9415 0002401  79.5151 280.6320 14.43283078427736
IRIDIUM 152             
1 43479U 18047D   26186.24165515  .00000348  00000+0  11726-3 0  9993
2 43479  86.3948  80.7833 0002202  81.7603 278.3843 14.34217773425079
IRIDIUM 147             
1 43480U 18047E   26186.24798367  .00000342  00000+0  11491-3 0  9995
2 43480  86.3949  80.7861 0002277  88.3480 271.7977 14.34217354425071
IRIDIUM 110             
1 43481U 18047F   26186.25433131  .00000024  00000+0  15977-5 0  9994
2 43481  86.3952  80.8756 0002218  75.3892 284.7550 14.34217759425067
IRIDIUM 162             
1 43482U 18047G   26186.25803843  .00000430  00000+0  12170-3 0  9997
2 43482  86.4471  80.8059 0002234  83.7009 276.4446 14.43281910427730
IRIDIUM 160             
1 43569U 18061A   26186.13039875  .00000010  00000+0 -33881-5 0  9991
2 43569  86.3946  49.2932 0002249  85.6553 274.4900 14.34217737415941
IRIDIUM 166             
1 43570U 18061B   26186.15576849  .00000129  00000+0  39069-4 0  9995
2 43570  86.3945  49.2328 0002220  89.0050 271.1400 14.34218484415972
IRIDIUM 158             
1 43571U 18061C   26186.12405388  .00000254  00000+0  83503-4 0  9993
2 43571  86.3944  49.2559 0002111  85.1772 274.9665 14.34219582415935
IRIDIUM 165             
1 43572U 18061D   26186.14942549  .00000098  00000+0  27942-4 0  9992
2 43572  86.3947  49.2922 0002171  89.7396 270.4049 14.34218463415968
IRIDIUM 155             
1 43573U 18061E   26186.11136642  .00000251  00000+0  82428-4 0  9990
2 43573  86.3941  49.1760 0002046  86.8345 273.3085 14.34220194415927
IRIDIUM 154             
1 43574U 18061F   26186.16210903  .00000261  00000+0  86266-4 0  9994
2 43574  86.3943  49.2893 0002157  88.6083 271.5360 14.34219278415983
IRIDIUM 163             
1 43575U 18061G   26186.14308244  .00000220  00000+0  71647-4 0  9991
2 43575  86.3943  49.2121 0002203  84.5290 275.6157 14.34219194415958
